STARLINK-32105          
1 59689U 24086H   25265.76664418  .00004968  00000+0  18988-3 0  9992
2 59689  43.0008 287.9680 0001417 270.6551  89.4138 15.27592049 78432
STARLINK-32106          
1 59690U 24086J   25265.73163987  .00001906  00000+0  78771-4 0  9992
2 59690  43.0010 280.7827 0000876 269.3958  90.6793 15.27578766 78515
STARLINK-32090          
1 59691U 24086K   25265.55729382  .00000225  00000+0  17677-4 0  9991
2 59691  43.0022 293.2933 0000874 262.8432  97.2321 15.27592770 78352
STARLINK-32088          
1 59693U 24086M   25265.73935442 -.00001705  00000+0 -52448-4 0  9990
2 59693  43.0025 280.8394 0001092 272.1785  87.8942 15.27581444 78516
STARLINK-32107          
1 59694U 24086N   25265.41416152 -.00001152  00000+0 -32335-4 0  9997
2 59694  43.0015 290.4778 0001134 271.8785  88.1937 15.27591273 78375
STARLINK-32104          
1 59695U 24086P   25265.74027934  .00001254  00000+0  55096-4 0  9990
2 59695  43.0008 285.0948 0001302 272.2017  87.8685 15.27582467 78468
STARLINK-32094          
1 59696U 24086Q   25265.41801810  .00001262  00000+0  55357-4 0  9997
2 59696  43.0017 290.5068 0001092 271.7494  88.3232 15.27584090 78370
STARLINK-32099          
1 59697U 24086R   25265.77049716  .00000602  00000+0  31402-4 0  9998
2 59697  43.0003 287.9958 0001353 271.6506  88.4190 15.27581752 78430
STARLINK-32096          
1 59698U 24086S   25265.13077515  .00000179  00000+0  16021-4 0  9996
2 59698  43.0026 291.7921 0001019 261.8225  98.2511 15.27575993 78332
STARLINK-32102          
1 59699U 24086T   25265.12306381  .00010042  00000+0  37375-3 0  9996
2 59699  42.9996 291.7362 0000301 322.9456  37.1375 15.27596620 78334
STARLINK-32092          
1 59700U 24086U   25265.79492418  .00000843  00000+0  40164-4 0  9998
2 59700  43.0070 288.1780 0001547 265.3321  94.7354 15.27573337 78437
STARLINK-32093          
1 59701U 24086V   25265.79235078 -.00000049  00000+0  77426-5 0  9997
2 59701  43.0035 288.1569 0000671 265.6327  94.4448 15.27582524 78439
STARLINK-32087          
1 59702U 24086W   25266.04233165  .00001274  00000+0  55808-4 0  9991
2 59702  43.0040 286.5945 0000887 276.1841  83.8910 15.27575284 78478
STARLINK-32086          
1 59703U 24086X   25265.76279111  .00012485  00000+0  46231-3 0  9996
2 59703  42.9952 287.9380 0001847 278.3323  81.7319 15.27588880 78435
STARLINK-32098          
1 59704U 24086Y   25266.26031582  .00003040  00000+0  11986-3 0  9997
2 59704  43.0032 285.6550 0001765 285.3329  74.7328 15.27604997 78502
STARLINK-11107 [DTC]    
1 59708U 24088A   25265.77518850 -.00000326  00000+0  21593-5 0  9998
2 59708  53.1585  73.7280 0000717  82.2741 277.8358 15.69714030 79882
