[{"OBJECT_NAME":"STARLINK-32105","OBJECT_ID":"2024-086H","EPOCH":"2025-09-22T18:23:58.057152","MEAN_MOTION":15.27592049,"ECCENTRICITY":0.00014175,"INCLINATION":43.0008,"RA_OF_ASC_NODE":287.968,"ARG_OF_PERICENTER":270.6551,"MEAN_ANOMALY":89.4138,"EPHEMERIS_TYPE":0,"CLASSIFICATION_TYPE":"U","NORAD_CAT_ID":59689,"ELEMENT_SET_NO":999,"REV_AT_EPOCH":7843,"BSTAR":0.00018988303,"MEAN_MOTION_DOT":4.968e-5,"MEAN_MOTION_DDOT":0},{"OBJECT_NAME":"STARLINK-32106","OBJECT_ID":"2024-086J","EPOCH":"2025-09-22T17:33:33.684768","MEAN_MOTION":15.27578766,"ECCENTRICITY":8.764e-5,"INCLINATION":43.001,"RA_OF_ASC_NODE":280.7827,"ARG_OF_PERICENTER":269.3958,"MEAN_ANOMALY":90.6793,"EPHEMERIS_TYPE":0,"CLASSIFICATION_TYPE":"U","NORAD_CAT_ID":59690,"ELEMENT_SET_NO":999,"REV_AT_EPOCH":7851,"BSTAR":7.8771286e-5,"MEAN_MOTION_DOT":1.906e-5,"MEAN_MOTION_DDOT":0},{"OBJECT_NAME":"STARLINK-32090","OBJECT_ID":"2024-086K","EPOCH":"2025-09-22T13:22:30.186048","MEAN_MOTION":15.2759277,"ECCENTRICITY":8.743e-5,"INCLINATION":43.0022,"RA_OF_ASC_NODE":293.2933,"ARG_OF_PERICENTER":262.8432,"MEAN_ANOMALY":97.2321,"EPHEMERIS_TYPE":0,"CLASSIFICATION_TYPE":"U","NORAD_CAT_ID":59691,"ELEMENT_SET_NO":999,"REV_AT_EPOCH":7835,"BSTAR":1.7676603e-5,"MEAN_MOTION_DOT":2.25e-6,"MEAN_MOTION_DDOT":0},{"OBJECT_NAME":"STARLINK-32088","OBJECT_ID":"2024-086M","EPOCH":"2025-09-22T17:44:40.221888","MEAN_MOTION":15.27581444,"ECCENTRICITY":0.00010929,"INCLINATION":43.0025,"RA_OF_ASC_NODE":280.8394,"ARG_OF_PERICENTER":272.1785,"MEAN_ANOMALY":87.8942,"EPHEMERIS_TYPE":0,"CLASSIFICATION_TYPE":"U","NORAD_CAT_ID":59693,"ELEMENT_SET_NO":999,"REV_AT_EPOCH":7851,"BSTAR":-5.2447662e-5,"MEAN_MOTION_DOT":-1.705e-5,"MEAN_MOTION_DDOT":0},{"OBJECT_NAME":"STARLINK-32107","OBJECT_ID":"2024-086N","EPOCH":"2025-09-22T09:56:23.555328","MEAN_MOTION":15.27591273,"ECCENTRICITY":0.0001134,"INCLINATION":43.0015,"RA_OF_ASC_NODE":290.4778,"ARG_OF_PERICENTER":271.8785,"MEAN_ANOMALY":88.1937,"EPHEMERIS_TYPE":0,"CLASSIFICATION_TYPE":"U","NORAD_CAT_ID":59694,"ELEMENT_SET_NO":999,"REV_AT_EPOCH":7837,"BSTAR":-3.233468e-5,"MEAN_MOTION_DOT":-1.152e-5,"MEAN_MOTION_DDOT":0},{"OBJECT_NAME":"STARLINK-32104","OBJECT_ID":"2024-086P","EPOCH":"2025-09-22T17:46:00.134976","MEAN_MOTION":15.27582467,"ECCENTRICITY":0.00013029,"INCLINATION":43.0008,"RA_OF_ASC_NODE":285.0948,"ARG_OF_PERICENTER":272.2017,"MEAN_ANOMALY":87.8685,"EPHEMERIS_TYPE":0,"CLASSIFICATION_TYPE":"U","NORAD_CAT_ID":59695,"ELEMENT_SET_NO":999,"REV_AT_EPOCH":7846,"BSTAR":5.5095654e-5,"MEAN_MOTION_DOT":1.254e-5,"MEAN_MOTION_DDOT":0},{"OBJECT_NAME":"STARLINK-32094","OBJECT_ID":"2024-086Q","EPOCH":"2025-09-22T10:01:56.763840","MEAN_MOTION":15.2758409,"ECCENTRICITY":0.00010924,"INCLINATION":43.0017,"RA_OF_ASC_NODE":290.5068,"ARG_OF_PERICENTER":271.7494,"MEAN_ANOMALY":88.3232,"EPHEMERIS_TYPE":0,"CLASSIFICATION_TYPE":"U","NORAD_CAT_ID":59696,"ELEMENT_SET_NO":999,"REV_AT_EPOCH":7837,"BSTAR":5.5357049e-5,"MEAN_MOTION_DOT":1.262e-5,"MEAN_MOTION_DDOT":0},{"OBJECT_NAME":"STARLINK-32099","OBJECT_ID":"2024-086R","EPOCH":"2025-09-22T18:29:30.954624","MEAN_MOTION":15.27581752,"ECCENTRICITY":0.00013537,"INCLINATION":43.0003,"RA_OF_ASC_NODE":287.9958,"ARG_OF_PERICENTER":271.6506,"MEAN_ANOMALY":88.419,"EPHEMERIS_TYPE":0,"CLASSIFICATION_TYPE":"U","NORAD_CAT_ID":59697,"ELEMENT_SET_NO":999,"REV_AT_EPOCH":7843,"BSTAR":3.1401556e-5,"MEAN_MOTION_DOT":6.02e-6,"MEAN_MOTION_DDOT":0},{"OBJECT_NAME":"STARLINK-32096","OBJECT_ID":"2024-086S","EPOCH":"2025-09-22T03:08:18.972960","MEAN_MOTION":15.27575993,"ECCENTRICITY":0.00010197,"INCLINATION":43.0026,"RA_OF_ASC_NODE":291.7921,"ARG_OF_PERICENTER":261.8225,"MEAN_ANOMALY":98.2511,"EPHEMERIS_TYPE":0,"CLASSIFICATION_TYPE":"U","NORAD_CAT_ID":59698,"ELEMENT_SET_NO":999,"REV_AT_EPOCH":7833,"BSTAR":1.6020962e-5,"MEAN_MOTION_DOT":1.79e-6,"MEAN_MOTION_DDOT":0},{"OBJECT_NAME":"STARLINK-32102","OBJECT_ID":"2024-086T","EPOCH":"2025-09-22T02:57:12.713184","MEAN_MOTION":15.2759662,"ECCENTRICITY":3.016e-5,"INCLINATION":42.9996,"RA_OF_ASC_NODE":291.7362,"ARG_OF_PERICENTER":322.9456,"MEAN_ANOMALY":37.1375,"EPHEMERIS_TYPE":0,"CLASSIFICATION_TYPE":"U","NORAD_CAT_ID":59699,"ELEMENT_SET_NO":999,"REV_AT_EPOCH":7833,"BSTAR":0.00037374797,"MEAN_MOTION_DOT":0.00010042,"MEAN_MOTION_DDOT":0},{"OBJECT_NAME":"STARLINK-32092","OBJECT_ID":"2024-086U","EPOCH":"2025-09-22T19:04:41.449152","MEAN_MOTION":15.27573337,"ECCENTRICITY":0.00015473,"INCLINATION":43.007,"RA_OF_ASC_NODE":288.178,"ARG_OF_PERICENTER":265.3321,"MEAN_ANOMALY":94.7354,"EPHEMERIS_TYPE":0,"CLASSIFICATION_TYPE":"U","NORAD_CAT_ID":59700,"ELEMENT_SET_NO":999,"REV_AT_EPOCH":7843,"BSTAR":4.0163581e-5,"MEAN_MOTION_DOT":8.43e-6,"MEAN_MOTION_DDOT":0},{"OBJECT_NAME":"STARLINK-32093","OBJECT_ID":"2024-086V","EPOCH":"2025-09-22T19:00:59.107392","MEAN_MOTION":15.27582524,"ECCENTRICITY":6.715e-5,"INCLINATION":43.0035,"RA_OF_ASC_NODE":288.1569,"ARG_OF_PERICENTER":265.6327,"MEAN_ANOMALY":94.4448,"EPHEMERIS_TYPE":0,"CLASSIFICATION_TYPE":"U","NORAD_CAT_ID":59701,"ELEMENT_SET_NO":999,"REV_AT_EPOCH":7843,"BSTAR":7.742587e-6,"MEAN_MOTION_DOT":-4.9e-7,"MEAN_MOTION_DDOT":0},{"OBJECT_NAME":"STARLINK-32087","OBJECT_ID":"2024-086W","EPOCH":"2025-09-23T01:00:57.454560","MEAN_MOTION":15.27575284,"ECCENTRICITY":8.879e-5,"INCLINATION":43.004,"RA_OF_ASC_NODE":286.5945,"ARG_OF_PERICENTER":276.1841,"MEAN_ANOMALY":83.891,"EPHEMERIS_TYPE":0,"CLASSIFICATION_TYPE":"U","NORAD_CAT_ID":59702,"ELEMENT_SET_NO":999,"REV_AT_EPOCH":7847,"BSTAR":5.580764e-5,"MEAN_MOTION_DOT":1.274e-5,"MEAN_MOTION_DDOT":0},{"OBJECT_NAME":"STARLINK-32086","OBJECT_ID":"2024-086X","EPOCH":"2025-09-22T18:18:25.151904","MEAN_MOTION":15.2758888,"ECCENTRICITY":0.0001847,"INCLINATION":42.9952,"RA_OF_ASC_NODE":287.938,"ARG_OF_PERICENTER":278.3323,"MEAN_ANOMALY":81.7319,"EPHEMERIS_TYPE":0,"CLASSIFICATION_TYPE":"U","NORAD_CAT_ID":59703,"ELEMENT_SET_NO":999,"REV_AT_EPOCH":7843,"BSTAR":0.00046231007,"MEAN_MOTION_DOT":0.00012485,"MEAN_MOTION_DDOT":0},{"OBJECT_NAME":"STARLINK-32098","OBJECT_ID":"2024-086Y","EPOCH":"2025-09-23T06:14:51.286848","MEAN_MOTION":15.27604997,"ECCENTRICITY":0.00017658,"INCLINATION":43.0032,"RA_OF_ASC_NODE":285.655,"ARG_OF_PERICENTER":285.3329,"MEAN_ANOMALY":74.7328,"EPHEMERIS_TYPE":0,"CLASSIFICATION_TYPE":"U","NORAD_CAT_ID":59704,"ELEMENT_SET_NO":999,"REV_AT_EPOCH":7850,"BSTAR":0.00011985852,"MEAN_MOTION_DOT":3.04e-5,"MEAN_MOTION_DDOT":0},{"OBJECT_NAME":"STARLINK-11107 [DTC]","OBJECT_ID":"2024-088A","EPOCH":"2025-09-22T18:36:16.286400","MEAN_MOTION":15.6971403,"ECCENTRICITY":7.173e-5,"INCLINATION":53.1585,"RA_OF_ASC_NODE":73.728,"ARG_OF_PERICENTER":82.2741,"MEAN_ANOMALY":277.8358,"EPHEMERIS_TYPE":0,"CLASSIFICATION_TYPE":"U","NORAD_CAT_ID":59708,"ELEMENT_SET_NO":999,"REV_AT_EPOCH":7988,"BSTAR":2.159298e-6,"MEAN_MOTION_DOT":-3.26e-6,"MEAN_MOTION_DDOT":0}]
